NORAD_CAT_ID,OBJECT_NAME,OBJECT_TYPE,EPOCH,MEAN_MOTION,ECCENTRICITY,INCLINATION,RA_OF_ASC_NODE,ARG_OF_PERICENTER,MEAN_ANOMALY,BSTAR,MEAN_MOTION_DOT,MEAN_MOTION_DDOT,TLE_LINE0,TLE_LINE1,TLE_LINE2,SEMIMAJOR_AXIS,PERIOD,APOGEE,PERIGEE,DECAYED
54180.0,STARLINK-5228,PAYLOAD,2024-02-22 04:07:42,15.08843302,0.0001766,53.2157,115.029,81.825,278.2943,0.00019119,2.756e-05,0.0,0 STARLINK-5228,1 54180U 22141Z   24053.17201902  .00002756  00000-0  19119-3 0  9998,2 54180  53.2157 115.0290 0001766  81.8250 278.2943 15.08843302 73396,6917.87,95.437,540.957,538.514,0.0
54180.0,STARLINK-5228,PAYLOAD,2024-02-22 10:29:14,15.08847157,0.0001624,53.2154,113.8375,93.1981,266.9197,0.00023969,3.529e-05,0.0,0 STARLINK-5228,1 54180U 22141Z   24053.43697573  .00003529  00000-0  23969-3 0  9997,2 54180  53.2154 113.8375 0001624  93.1981 266.9197 15.08847157 73200,6917.859,95.437,540.847,538.6,0.0
54180.0,STARLINK-5228,PAYLOAD,2024-02-23 03:58:29,15.08836732,0.0001725,53.2155,110.567,89.6626,270.4564,-1.1327e-06,-3.06e-06,0.0,0 STARLINK-5228,1 54180U 22141Z   24054.16562199 -.00000306  00000-0 -11327-5 0  9992,2 54180  53.2155 110.5670 0001725  89.6626 270.4564 15.08836732 73543,6917.89,95.438,540.949,538.562,0.0
54180.0,STARLINK-5228,PAYLOAD,2024-02-23 10:20:02,15.08834022,0.0001669,53.2162,109.3774,86.9119,273.2064,-1.4132e-05,-5.13e-06,0.0,0 STARLINK-5228,1 54180U 22141Z   24054.43058736 -.00000513  00000-0 -14132-4 0  9995,2 54180  53.2162 109.3774 0001669  86.9119 273.2064 15.08834022 73351,6917.899,95.438,540.918,538.609,0.0
54180.0,STARLINK-5228,PAYLOAD,2024-02-24 10:10:49,15.08846349,0.0001659,53.2154,104.9166,85.166,274.9521,0.00020972,3.052e-05,0.0,0 STARLINK-5228,1 54180U 22141Z   24055.42418093  .00003052  00000-0  20972-3 0  9998,2 54180  53.2154 104.9166 0001659  85.1660 274.9521 15.08846349 73732,6917.861,95.437,540.874,538.578,0.0
54180.0,STARLINK-5228,PAYLOAD,2024-02-24 19:43:08,15.08845386,0.0001627,53.2151,103.1325,84.0484,276.0694,0.00017414,2.485e-05,0.0,0 STARLINK-5228,1 54180U 22141Z   24055.82162145  .00002485  00000-0  17414-3 0  9992,2 54180  53.2151 103.1325 0001627  84.0484 276.0694 15.08845386 73569,6917.864,95.437,540.854,538.603,0.0
54180.0,STARLINK-5228,PAYLOAD,2024-02-25 03:40:04,15.0884017,0.000173,53.2157,101.6459,83.7235,276.3954,0.00021245,3.095e-05,0.0,0 STARLINK-5228,1 54180U 22141Z   24056.15282487  .00003095  00000-0  21245-3 0  9996,2 54180  53.2157 101.6459 0001730  83.7235 276.3954 15.08840170 73840,6917.88,95.438,540.942,538.548,0.0
54180.0,STARLINK-5228,PAYLOAD,2024-02-25 10:01:36,15.08847175,0.0001768,53.2161,100.4567,84.813,275.3064,0.00028924,4.319e-05,0.0,0 STARLINK-5228,1 54180U 22141Z   24056.41778182  .00004319  00000-0  28924-3 0  9998,2 54180  53.2161 100.4567 0001768  84.8130 275.3064 15.08847175 73651,6917.858,95.437,540.947,538.5,0.0
54180.0,STARLINK-5228,PAYLOAD,2024-02-25 19:33:55,15.08840528,0.0001747,53.2158,98.6736,89.3225,270.7968,3.4925e-05,2.68e-06,0.0,0 STARLINK-5228,1 54180U 22141Z   24056.81522286  .00000268  00000-0  34925-4 0  9992,2 54180  53.2158  98.6736 0001747  89.3225 270.7968 15.08840528 73719,6917.879,95.438,540.952,538.535,0.0
54180.0,STARLINK-5228,PAYLOAD,2024-02-26 11:27:47,15.0883976,0.0001842,53.2186,95.7005,90.5332,269.5871,2.1069e-05,4.7e-07,0.0,0 STARLINK-5228,1 54180U 22141Z   24057.47762897  .00000047  00000-0  21069-4 0  9999,2 54180  53.2186  95.7005 0001842  90.5332 269.5871 15.08839760 74048,6917.881,95.438,541.02,538.472,0.0
54180.0,STARLINK-5228,PAYLOAD,2024-02-27 11:18:33,15.08844331,0.0001959,53.2183,91.2379,97.493,262.6285,4.6854e-05,4.58e-06,0.0,0 STARLINK-5228,1 54180U 22141Z   24058.47122567  .00000458  00000-0  46854-4 0  9999,2 54180  53.2183  91.2379 0001959  97.4930 262.6285 15.08844331 73962,6917.867,95.437,541.087,538.377,0.0
54180.0,STARLINK-5228,PAYLOAD,2024-02-27 19:15:29,15.08842055,0.0001902,53.2181,89.7495,87.5167,272.6043,-9.4663e-06,-4.39e-06,0.0,0 STARLINK-5228,1 54180U 22141Z   24058.80242835 -.00000439  00000-0 -94663-5 0  9990,2 54180  53.2181  89.7495 0001902  87.5167 272.6043 15.08842055 74247,6917.874,95.437,541.055,538.423,0.0
54180.0,STARLINK-5228,PAYLOAD,2024-02-28 09:33:58,15.08839887,0.0001748,53.2169,87.0742,92.0067,268.1126,0.00010824,1.435e-05,0.0,0 STARLINK-5228,1 54180U 22141Z   24059.39858858  .00001435  00000-0  10824-3 0  9993,2 54180  53.2169  87.0742 0001748  92.0067 268.1126 15.08839887 74103,6917.881,95.438,540.955,538.536,0.0
54180.0,STARLINK-5228,PAYLOAD,2024-02-28 19:06:16,15.08842927,0.0001743,53.217,85.29,91.8097,268.3095,0.00010349,1.359e-05,0.0,0 STARLINK-5228,1 54180U 22141Z   24059.79602643  .00001359  00000-0  10349-3 0  9993,2 54180  53.2170  85.2900 0001743  91.8097 268.3095 15.08842927 74168,6917.871,95.437,540.942,538.531,0.0
54180.0,STARLINK-5228,PAYLOAD,2024-02-29 01:27:49,15.08842312,0.000174,53.2171,84.1008,88.3249,271.7942,7.7415e-05,9.44e-06,0.0,0 STARLINK-5228,1 54180U 22141Z   24060.06098783  .00000944  00000-0  77415-4 0  9996,2 54180  53.2171  84.1008 0001740  88.3249 271.7942 15.08842312 74430,6917.873,95.437,540.942,538.535,0.0
54180.0,STARLINK-5228,PAYLOAD,2024-02-29 07:49:21,15.08845954,0.0001666,53.2159,82.9107,89.0075,271.1108,0.00010201,1.336e-05,0.0,0 STARLINK-5228,1 54180U 22141Z   24060.32594439  .00001336  00000-0  10201-3 0  9999,2 54180  53.2159  82.9107 0001666  89.0075 271.1108 15.08845954 74246,6917.862,95.437,540.88,538.575,0.0
54180.0,STARLINK-5228,PAYLOAD,2024-02-29 18:57:03,15.08841821,0.0001607,53.2157,80.8284,96.2919,263.8256,-6.3828e-07,-2.98e-06,0.0,0 STARLINK-5228,1 54180U 22141Z   24060.78962781 -.00000298  00000-0 -63828-6 0  9992,2 54180  53.2157  80.8284 0001607  96.2919 263.8256 15.08841821 74318,6917.875,95.437,540.852,538.628,0.0
54180.0,STARLINK-5228,PAYLOAD,2024-03-01 04:29:22,15.08857696,0.0001784,53.2155,79.0441,89.2364,270.8833,-0.00026259,-4.467e-05,0.0,0 STARLINK-5228,1 54180U 22141Z   24061.18706393 -.00004467  00000-0 -26259-3 0  9998,2 54180  53.2155  79.0441 0001784  89.2364 270.8833 15.08857696 74601,6917.826,95.436,540.925,538.457,0.0
54180.0,STARLINK-5228,PAYLOAD,2024-03-01 07:40:09,15.08827489,0.0001572,53.216,78.4497,97.3488,262.7683,0.00021072,3.066e-05,0.0,0 STARLINK-5228,1 54180U 22141Z   24061.31955368  .00003066  00000-0  21072-3 0  9991,2 54180  53.2160  78.4497 0001572  97.3488 262.7683 15.08827489 74625,6917.919,95.438,540.871,538.696,0.0
54180.0,STARLINK-5228,PAYLOAD,2024-03-02 07:30:55,15.0884387,0.0001617,53.2164,73.9895,96.5047,263.6129,5.8797e-05,6.48e-06,0.0,0 STARLINK-5228,1 54180U 22141Z   24062.31314545  .00000648  00000-0  58797-4 0  9996,2 54180  53.2164  73.9895 0001617  96.5047 263.6129 15.08843870 74776,6917.869,95.437,540.852,538.615,0.0
54180.0,STARLINK-5228,PAYLOAD,2024-03-02 20:14:01,15.08837495,0.000165,53.2165,71.6098,97.7846,262.3333,7.326e-05,8.78e-06,0.0,0 STARLINK-5228,1 54180U 22141Z   24062.84306913  .00000878  00000-0  73260-4 0  9991,2 54180  53.2165  71.6098 0001650  97.7846 262.3333 15.08837495 74852,6917.888,95.438,540.894,538.612,0.0
54180.0,STARLINK-5228,PAYLOAD,2024-03-03 07:21:42,15.08841627,0.000158,53.2162,69.5288,96.3667,263.7505,0.00010423,1.371e-05,0.0,0 STARLINK-5228,1 54180U 22141Z   24063.30674676  .00001371  00000-0  10423-3 0  9997,2 54180  53.2162  69.5288 0001580  96.3667 263.7505 15.08841627 74694,6917.875,95.437,540.833,538.647,0.0
54180.0,STARLINK-5228,PAYLOAD,2024-03-04 04:01:43,15.08842984,0.0001762,53.218,65.6657,110.1151,250.0031,2.3814e-05,9.1e-07,0.0,0 STARLINK-5228,1 54180U 22141Z   24064.16786876  .00000091  00000-0  23814-4 0  9995,2 54180  53.2180  65.6657 0001762 110.1151 250.0031 15.08842984 75057,6917.871,95.437,540.955,538.517,0.0
54180.0,STARLINK-5228,PAYLOAD,2024-03-04 07:12:30,15.0884271,0.0001821,53.2182,65.0712,105.816,254.3033,6.5091e-05,7.48e-06,0.0,0 STARLINK-5228,1 54180U 22141Z   24064.30034789  .00000748  00000-0  65091-4 0  9992,2 54180  53.2182  65.0712 0001821 105.8160 254.3033 15.08842710 74844,6917.872,95.437,540.997,538.477,0.0
54180.0,STARLINK-5228,PAYLOAD,2024-03-04 16:44:49,15.08837193,0.0001481,53.2166,63.2836,94.0894,266.0267,2.2248e-05,6.6e-07,0.0,0 STARLINK-5228,1 54180U 22141Z   24064.69779178  .00000066  00000-0  22248-4 0  9992,2 54180  53.2166  63.2836 0001481  94.0894 266.0267 15.08837193 74903,6917.889,95.438,540.779,538.729,0.0
54180.0,STARLINK-5228,PAYLOAD,2024-03-05 03:52:32,15.08821012,0.0001405,53.2166,61.2033,94.5227,265.5925,-8.7693e-05,-1.683e-05,0.0,0 STARLINK-5228,1 54180U 22141Z   24065.16148871 -.00001683  00000-0 -87693-4 0  9998,2 54180  53.2166  61.2033 0001405  94.5227 265.5925 15.08821012 75203,6917.938,95.439,540.775,538.831,0.0
54180.0,STARLINK-5228,PAYLOAD,2024-03-05 08:38:41,15.08827494,0.0001705,53.2176,60.3109,90.0814,270.0374,-5.9439e-05,-1.234e-05,0.0,0 STARLINK-5228,1 54180U 22141Z   24065.36020635 -.00001234  00000-0 -59439-4 0  9996,2 54180  53.2176  60.3109 0001705  90.0814 270.0374 15.08827494 75001,6917.919,95.438,540.963,538.604,0.0
54180.0,STARLINK-5228,PAYLOAD,2024-03-05 16:35:36,15.08836121,0.0001646,53.2183,58.8238,88.8769,271.2412,4.8911e-05,4.9e-06,0.0,0 STARLINK-5228,1 54180U 22141Z   24065.69139970  .00000490  00000-0  48911-4 0  9999,2 54180  53.2183  58.8238 0001646  88.8769 271.2412 15.08836121 75285,6917.892,95.438,540.896,538.619,0.0
54180.0,STARLINK-5228,PAYLOAD,2024-03-06 03:43:18,15.08846828,0.0001598,53.2185,56.7415,90.4546,269.6629,0.00016645,2.363e-05,0.0,0 STARLINK-5228,1 54180U 22141Z   24066.15507077  .00002363  00000-0  16645-3 0  9997,2 54180  53.2185  56.7415 0001598  90.4546 269.6629 15.08846828 75353,6917.86,95.437,540.83,538.619,0.0
54180.0,STARLINK-5228,PAYLOAD,2024-03-06 08:29:27,15.08855039,0.0001543,53.2168,55.8488,85.3679,274.7489,0.00031117,4.67e-05,0.0,0 STARLINK-5228,1 54180U 22141Z   24066.35378942  .00004670  00000-0  31117-3 0  9990,2 54180  53.2168  55.8488 0001543  85.3679 274.7489 15.08855039 75157,6917.834,95.437,540.767,538.632,0.0
